{
  "type": "FeatureCollection",
  "features": [
    {
      "type": "Feature",
      "properties": {
        "norad_id": 32419,
        "name": "FENGYUN 1C DEB",
        "group": "fengyun-1c-debris",
        "lat": -8.863386982145839,
        "lon": 92.65731230571355,
        "alt_km": 1002.2754621289068,
        "timestamp": "2025-12-03T13:52:09.848413+00:00",
        "meta_object_name": "FENGYUN 1C DEB",
        "meta_object_id": "1999-025DAF",
        "meta_epoch": "2025-12-01T13:18:33.510528",
        "meta_mean_motion": 14.09844164,
        "meta_eccentricity": 0.02843724,
        "meta_inclination": 97.9442,
        "meta_ra_of_asc_node": 272.1151,
        "meta_arg_of_pericenter": 61.2588,
        "meta_mean_anomaly": 301.6841,
        "meta_ephemeris_type": 0,
        "meta_classification_type": "U",
        "meta_norad_cat_id": 32419,
        "meta_element_set_no": 999,
        "meta_rev_at_epoch": 63413,
        "meta_bstar": 0.00077117327,
        "meta_mean_motion_dot": 1.939e-05,
        "meta_mean_motion_ddot": 0,
        "tle_line1": "1 32419U 99025DAF 25335.55455452  .00001939  00000+0  77117-3 0  9994",
        "tle_line2": "2 32419  97.9442 272.1151 0284372  61.2588 301.6841 14.09844164634132"
      },
      "geometry": {
        "type": "Point",
        "coordinates": [
          92.65731230571355,
          -8.863386982145839
        ]
      }
    },
    {
      "type": "Feature",
      "properties": {
        "norad_id": 32422,
        "name": "FENGYUN 1C DEB",
        "group": "fengyun-1c-debris",
        "lat": 22.532453892582758,
        "lon": 107.11778100138396,
        "alt_km": 799.6984449105248,
        "timestamp": "2025-12-03T13:52:09.848424+00:00",
        "meta_object_name": "FENGYUN 1C DEB",
        "meta_object_id": "1999-025DAJ",
        "meta_epoch": "2025-11-29T15:17:31.788672",
        "meta_mean_motion": 13.97980957,
        "meta_eccentricity": 0.02986697,
        "meta_inclination": 97.8389,
        "meta_ra_of_asc_node": 107.0206,
        "meta_arg_of_pericenter": 330.1441,
        "meta_mean_anomaly": 28.2972,
        "meta_ephemeris_type": 0,
        "meta_classification_type": "U",
        "meta_norad_cat_id": 32422,
        "meta_element_set_no": 999,
        "meta_rev_at_epoch": 62950,
        "meta_bstar": 0.00026446988,
        "meta_mean_motion_dot": 5.11e-06,
        "meta_mean_motion_ddot": 0,
        "tle_line1": "1 32422U 99025DAJ 25333.63717348  .00000511  00000+0  26447-3 0  9995",
        "tle_line2": "2 32422  97.8389 107.0206 0298669 330.1441  28.2972 13.97980957629501"
      },
      "geometry": {
        "type": "Point",
        "coordinates": [
          107.11778100138396,
          22.532453892582758
        ]
      }
    },
    {
      "type": "Feature",
      "properties": {
        "norad_id": 32425,
        "name": "FENGYUN 1C DEB",
        "group": "fengyun-1c-debris",
        "lat": 65.61278141812438,
        "lon": 113.12866603577798,
        "alt_km": 853.5267412524081,
        "timestamp": "2025-12-03T13:52:09.848434+00:00",
        "meta_object_name": "FENGYUN 1C DEB",
        "meta_object_id": "1999-025DAM",
        "meta_epoch": "2025-11-30T16:03:56.695680",
        "meta_mean_motion": 14.16697533,
        "meta_eccentricity": 0.02326647,
        "meta_inclination": 96.7011,
        "meta_ra_of_asc_node": 125.9631,
        "meta_arg_of_pericenter": 335.9912,
        "meta_mean_anomaly": 23.0555,
        "meta_ephemeris_type": 0,
        "meta_classification_type": "U",
        "meta_norad_cat_id": 32425,
        "meta_element_set_no": 999,
        "meta_rev_at_epoch": 69364,
        "meta_bstar": 0.00044952502,
        "meta_mean_motion_dot": 1.14e-05,
        "meta_mean_motion_ddot": 0,
        "tle_line1": "1 32425U 99025DAM 25334.66940620  .00001140  00000+0  44953-3 0  9994",
        "tle_line2": "2 32425  96.7011 125.9631 0232664 335.9912  23.0555 14.16697533693647"
      },
      "geometry": {
        "type": "Point",
        "coordinates": [
          113.12866603577798,
          65.61278141812438
        ]
      }
    },
    {
      "type": "Feature",
      "properties": {
        "norad_id": 32430,
        "name": "FENGYUN 1C DEB",
        "group": "fengyun-1c-debris",
        "lat": -74.80698514659889,
        "lon": 37.49292796719513,
        "alt_km": 741.4304765762572,
        "timestamp": "2025-12-03T13:52:09.848445+00:00",
        "meta_object_name": "FENGYUN 1C DEB",
        "meta_object_id": "1999-025DAS",
        "meta_epoch": "2025-11-28T08:01:51.379680",
        "meta_mean_motion": 13.700237,
        "meta_eccentricity": 0.03669598,
        "meta_inclination": 98.6995,
        "meta_ra_of_asc_node": 358.4209,
        "meta_arg_of_pericenter": 308.4,
        "meta_mean_anomaly": 48.4718,
        "meta_ephemeris_type": 0,
        "meta_classification_type": "U",
        "meta_norad_cat_id": 32430,
        "meta_element_set_no": 999,
        "meta_rev_at_epoch": 91006,
        "meta_bstar": 0.0013292219,
        "meta_mean_motion_dot": 1.837e-05,
        "meta_mean_motion_ddot": 0,
        "tle_line1": "1 32430U 99025DAS 25332.33462245  .00001837  00000+0  13292-2 0  9998",
        "tle_line2": "2 32430  98.6995 358.4209 0366959 308.4000  48.4718 13.70023700910065"
      },
      "geometry": {
        "type": "Point",
        "coordinates": [
          37.49292796719513,
          -74.80698514659889
        ]
      }
    },
    {
      "type": "Feature",
      "properties": {
        "norad_id": 32432,
        "name": "FENGYUN 1C DEB",
        "group": "fengyun-1c-debris",
        "lat": -68.50337413778125,
        "lon": 35.39853583291317,
        "alt_km": 636.2052733800529,
        "timestamp": "2025-12-03T13:52:09.848455+00:00",
        "meta_object_name": "FENGYUN 1C DEB",
        "meta_object_id": "1999-025DAU",
        "meta_epoch": "2025-12-02T08:25:01.319808",
        "meta_mean_motion": 14.52224437,
        "meta_eccentricity": 0.01734006,
        "meta_inclination": 98.1727,
        "meta_ra_of_asc_node": 12.8023,
        "meta_arg_of_pericenter": 337.8892,
        "meta_mean_anomaly": 21.4887,
        "meta_ephemeris_type": 0,
        "meta_classification_type": "U",
        "meta_norad_cat_id": 32432,
        "meta_element_set_no": 999,
        "meta_rev_at_epoch": 70544,
        "meta_bstar": 0.0019660869,
        "meta_mean_motion_dot": 9.677e-05,
        "meta_mean_motion_ddot": 0,
        "tle_line1": "1 32432U 99025DAU 25336.35070972  .00009677  00000+0  19661-2 0  9994",
        "tle_line2": "2 32432  98.1727  12.8023 0173400 337.8892  21.4887 14.52224437705445"
      },
      "geometry": {
        "type": "Point",
        "coordinates": [
          35.39853583291317,
          -68.50337413778125
        ]
      }
    },
    {
      "type": "Feature",
      "properties": {
        "norad_id": 32440,
        "name": "FENGYUN 1C DEB",
        "group": "fengyun-1c-debris",
        "lat": -0.8787979296905668,
        "lon": -166.47978113648412,
        "alt_km": 1130.7648912395762,
        "timestamp": "2025-12-03T13:52:09.848466+00:00",
        "meta_object_name": "FENGYUN 1C DEB",
        "meta_object_id": "1999-025DBC",
        "meta_epoch": "2025-11-27T20:16:06.645504",
        "meta_mean_motion": 13.61135656,
        "meta_eccentricity": 0.03209529,
        "meta_inclination": 99.154,
        "meta_ra_of_asc_node": 187.9971,
        "meta_arg_of_pericenter": 129.5867,
        "meta_mean_anomaly": 233.4091,
        "meta_ephemeris_type": 0,
        "meta_classification_type": "U",
        "meta_norad_cat_id": 32440,
        "meta_element_set_no": 999,
        "meta_rev_at_epoch": 60083,
        "meta_bstar": 0.0027513156,
        "meta_mean_motion_dot": 2.908e-05,
        "meta_mean_motion_ddot": 0,
        "tle_line1": "1 32440U 99025DBC 25331.84452136  .00002908  00000+0  27513-2 0  9993",
        "tle_line2": "2 32440  99.1540 187.9971 0320952 129.5867 233.4091 13.61135656600830"
      },
      "geometry": {
        "type": "Point",
        "coordinates": [
          -166.47978113648412,
          -0.8787979296905668
        ]
      }
    },
    {
      "type": "Feature",
      "properties": {
        "norad_id": 32447,
        "name": "FENGYUN 1C DEB",
        "group": "fengyun-1c-debris",
        "lat": -3.5299922742043837,
        "lon": 173.42756755442855,
        "alt_km": 937.432427734987,
        "timestamp": "2025-12-03T13:52:09.848476+00:00",
        "meta_object_name": "FENGYUN 1C DEB",
        "meta_object_id": "1999-025DBK",
        "meta_epoch": "2025-11-26T07:16:04.677024",
        "meta_mean_motion": 13.9600218,
        "meta_eccentricity": 0.00802127,
        "meta_inclination": 98.9321,
        "meta_ra_of_asc_node": 346.9282,
        "meta_arg_of_pericenter": 86.1501,
        "meta_mean_anomaly": 274.8828,
        "meta_ephemeris_type": 0,
        "meta_classification_type": "U",
        "meta_norad_cat_id": 32447,
        "meta_element_set_no": 999,
        "meta_rev_at_epoch": 67649,
        "meta_bstar": 5.5043618e-05,
        "meta_mean_motion_dot": 3.5e-07,
        "meta_mean_motion_ddot": 0,
        "tle_line1": "1 32447U 99025DBK 25330.30283191  .00000035  00000+0  55044-4 0  9994",
        "tle_line2": "2 32447  98.9321 346.9282 0080212  86.1501 274.8828 13.96002180676493"
      },
      "geometry": {
        "type": "Point",
        "coordinates": [
          173.42756755442855,
          -3.5299922742043837
        ]
      }
    }
  ]
}